{"type": "FeatureCollection", "features": [ {"type": "Feature", "properties": {"norad_id": 65077, "name": "CREW DRAGON 11", "group": "stations", "lat": 2.3335164496101966, "lon": -20.34270059519018, "alt_km": 417.1969244277052, "timestamp": "2025-12-08T21:31:03.464451+00:00", "meta": {"OBJECT_NAME": "CREW DRAGON 11", "OBJECT_ID": "2025-166A", "EPOCH": "2025-12-08T13:01:02.621280", "MEAN_MOTION": 15.49420853, "ECCENTRICITY": 0.00033936, "INCLINATION": 51.6307, "RA_OF_ASC_NODE": 163.2617, "ARG_OF_PERICENTER": 220.7658, "MEAN_ANOMALY": 139.3077, "EPHEMERIS_TYPE": 0, "CLASSIFICATION_TYPE": "U", "NORAD_CAT_ID": 65077, "ELEMENT_SET_NO": 999, "REV_AT_EPOCH": 214, "BSTAR": 0.00023027995, "MEAN_MOTION_DOT": 0.00012445, "MEAN_MOTION_DDOT": 0}, "tle": {"line1": "1 65077U 25166A   25342.54239145  .00012445  00000+0  23028-3 0  9997", "line2": "2 65077  51.6307 163.2617 0003393 220.7658 139.3077 15.49420853  2141"}}, "geometry": {"type": "Point", "coordinates": [-20.34270059519018, 2.3335164496101966]}}, {"type": "Feature", "properties": {"norad_id": 65304, "name": "DRAGON CRS-33", "group": "stations", "lat": 2.333515791216075, "lon": -20.342700073161218, "alt_km": 417.19692449262584, "timestamp": "2025-12-08T21:31:03.464464+00:00", "meta": {"OBJECT_NAME": "DRAGON CRS-33", "OBJECT_ID": "2025-186A", "EPOCH": "2025-12-08T13:01:02.621280", "MEAN_MOTION": 15.49420853, "ECCENTRICITY": 0.00033936, "INCLINATION": 51.6307, "RA_OF_ASC_NODE": 163.2617, "ARG_OF_PERICENTER": 220.7658, "MEAN_ANOMALY": 139.3077, "EPHEMERIS_TYPE": 0, "CLASSIFICATION_TYPE": "U", "NORAD_CAT_ID": 65304, "ELEMENT_SET_NO": 999, "REV_AT_EPOCH": 11, "BSTAR": 0.00023027995, "MEAN_MOTION_DOT": 0.00012445, "MEAN_MOTION_DDOT": 0}, "tle": {"line1": "1 65304U 25186A   25342.54239145  .00012445  00000+0  23028-3 0  9992", "line2": "2 65304  51.6307 163.2617 0003393 220.7658 139.3077 15.49420853   119"}}, "geometry": {"type": "Point", "coordinates": [-20.342700073161218, 2.333515791216075]}}, {"type": "Feature", "properties": {"norad_id": 65586, "name": "PROGRESS-MS 32", "group": "stations", "lat": 2.333515183468016, "lon": -20.342699591288604, "alt_km": 417.19692455255426, "timestamp": "2025-12-08T21:31:03.464476+00:00", "meta": {"OBJECT_NAME": "PROGRESS-MS 32", "OBJECT_ID": "2025-204A", "EPOCH": "2025-12-08T13:01:02.621280", "MEAN_MOTION": 15.49420853, "ECCENTRICITY": 0.00033936, "INCLINATION": 51.6307, "RA_OF_ASC_NODE": 163.2617, "ARG_OF_PERICENTER": 220.7658, "MEAN_ANOMALY": 139.3077, "EPHEMERIS_TYPE": 0, "CLASSIFICATION_TYPE": "U", "NORAD_CAT_ID": 65586, "ELEMENT_SET_NO": 999, "REV_AT_EPOCH": 27, "BSTAR": 0.00023027995, "MEAN_MOTION_DOT": 0.00012445, "MEAN_MOTION_DDOT": 0}, "tle": {"line1": "1 65586U 25204A   25342.54239145  .00012445  00000+0  23028-3 0  9995", "line2": "2 65586  51.6307 163.2617 0003393 220.7658 139.3077 15.49420853   278"}}, "geometry": {"type": "Point", "coordinates": [-20.342699591288604, 2.333515183468016]}}, {"type": "Feature", "properties": {"norad_id": 65616, "name": "CYGNUS NG-23", "group": "stations", "lat": 2.3335146263647433, "lon": -20.34269914957134, "alt_km": 417.19692460748956, "timestamp": "2025-12-08T21:31:03.464487+00:00", "meta": {"OBJECT_NAME": "CYGNUS NG-23", "OBJECT_ID": "2025-208A", "EPOCH": "2025-12-08T13:01:02.621280", "MEAN_MOTION": 15.49420853, "ECCENTRICITY": 0.00033936, "INCLINATION": 51.6307, "RA_OF_ASC_NODE": 163.2617, "ARG_OF_PERICENTER": 220.7658, "MEAN_ANOMALY": 139.3077, "EPHEMERIS_TYPE": 0, "CLASSIFICATION_TYPE": "U", "NORAD_CAT_ID": 65616, "ELEMENT_SET_NO": 999, "REV_AT_EPOCH": 22, "BSTAR": 0.00023027995, "MEAN_MOTION_DOT": 0.00012445, "MEAN_MOTION_DDOT": 0}, "tle": {"line1": "1 65616U 25208A   25342.54239145  .00012445  00000+0  23028-3 0  9993", "line2": "2 65616  51.6307 163.2617 0003393 220.7658 139.3077 15.49420853   227"}}, "geometry": {"type": "Point", "coordinates": [-20.34269914957134, 2.3335146263647433]}}, {"type": "Feature", "properties": {"norad_id": 65729, "name": "DRAGONFLY", "group": "stations", "lat": -27.46192034841117, "lon": -0.25906725307397444, "alt_km": 358.1045259122775, "timestamp": "2025-12-08T21:31:03.464498+00:00", "meta": {"OBJECT_NAME": "DRAGONFLY", "OBJECT_ID": "1998-067XH", "EPOCH": "2025-12-08T12:57:51.221952", "MEAN_MOTION": 15.70165771, "ECCENTRICITY": 0.00063996, "INCLINATION": 51.625, "RA_OF_ASC_NODE": 157.2406, "ARG_OF_PERICENTER": 250.6624, "MEAN_ANOMALY": 109.3682, "EPHEMERIS_TYPE": 0, "CLASSIFICATION_TYPE": "U", "NORAD_CAT_ID": 65729, "ELEMENT_SET_NO": 999, "REV_AT_EPOCH": 1250, "BSTAR": 0.0013512848, "MEAN_MOTION_DOT": 0.00170119, "MEAN_MOTION_DDOT": 0}, "tle": {"line1": "1 65729U 98067XH  25342.54017618  .00170119  00000+0  13513-2 0  9990", "line2": "2 65729  51.6250 157.2406 0006399 250.6624 109.3682 15.70165771 12504"}}, "geometry": {"type": "Point", "coordinates": [-0.25906725307397444, -27.46192034841117]}}, {"type": "Feature", "properties": {"norad_id": 65731, "name": "1998-067XK", "group": "stations", "lat": -29.609024554543144, "lon": 129.95293610230019, "alt_km": 378.1941623956427, "timestamp": "2025-12-08T21:31:03.464508+00:00", "meta": {"OBJECT_NAME": "1998-067XK", "OBJECT_ID": "1998-067XK", "EPOCH": "2025-12-08T12:29:14.710560", "MEAN_MOTION": 15.64682619, "ECCENTRICITY": 0.00053917, "INCLINATION": 51.6277, "RA_OF_ASC_NODE": 158.6227, "ARG_OF_PERICENTER": 219.7303, "MEAN_ANOMALY": 140.3298, "EPHEMERIS_TYPE": 0, "CLASSIFICATION_TYPE": "U", "NORAD_CAT_ID": 65731, "ELEMENT_SET_NO": 999, "REV_AT_EPOCH": 1248, "BSTAR": 0.00099222834, "MEAN_MOTION_DOT": 0.00098864, "MEAN_MOTION_DDOT": 0}, "tle": {"line1": "1 65731U 98067XK  25342.52030915  .00098864  00000+0  99223-3 0  9995", "line2": "2 65731  51.6277 158.6227 0005391 219.7303 140.3298 15.64682619 12486"}}, "geometry": {"type": "Point", "coordinates": [129.95293610230019, -29.609024554543144]}}, {"type": "Feature", "properties": {"norad_id": 65732, "name": "RSP-03", "group": "stations", "lat": -49.39191916281603, "lon": 43.65463533213851, "alt_km": 367.46553759510425, "timestamp": "2025-12-08T21:31:03.464518+00:00", "meta": {"OBJECT_NAME": "RSP-03", "OBJECT_ID": "1998-067XL", "EPOCH": "2025-12-08T12:46:48.847584", "MEAN_MOTION": 15.67256125, "ECCENTRICITY": 0.0006139, "INCLINATION": 51.6257, "RA_OF_ASC_NODE": 157.946, "ARG_OF_PERICENTER": 223.6679, "MEAN_ANOMALY": 136.3832, "EPHEMERIS_TYPE": 0, "CLASSIFICATION_TYPE": "U", "NORAD_CAT_ID": 65732, "ELEMENT_SET_NO": 999, "REV_AT_EPOCH": 1250, "BSTAR": 0.0011731956, "MEAN_MOTION_DOT": 0.00130297, "MEAN_MOTION_DDOT": 0}, "tle": {"line1": "1 65732U 98067XL  25342.53250981  .00130297  00000+0  11732-2 0  9999", "line2": "2 65732  51.6257 157.9460 0006139 223.6679 136.3832 15.67256125 12501"}}, "geometry": {"type": "Point", "coordinates": [43.65463533213851, -49.39191916281603]}}, {"type": "Feature", "properties": {"norad_id": 65733, "name": "GHS-01", "group": "stations", "lat": 51.538820056353224, "lon": -111.0595896888657, "alt_km": 348.1322186182024, "timestamp": "2025-12-08T21:31:03.464529+00:00", "meta": {"OBJECT_NAME": "GHS-01", "OBJECT_ID": "1998-067XM", "EPOCH": "2025-12-08T02:49:29.282592", "MEAN_MOTION": 15.7246557, "ECCENTRICITY": 0.0006917, "INCLINATION": 51.6275, "RA_OF_ASC_NODE": 158.9257, "ARG_OF_PERICENTER": 247.5151, "MEAN_ANOMALY": 112.5115, "EPHEMERIS_TYPE": 0, "CLASSIFICATION_TYPE": "U", "NORAD_CAT_ID": 65733, "ELEMENT_SET_NO": 999, "REV_AT_EPOCH": 1245, "BSTAR": 0.0014759083, "MEAN_MOTION_DOT": 0.00205689, "MEAN_MOTION_DDOT": 0}, "tle": {"line1": "1 65733U 98067XM  25342.11770003  .00205689  00000+0  14759-2 0  9996", "line2": "2 65733  51.6275 158.9257 0006917 247.5151 112.5115 15.72465570 12457"}}, "geometry": {"type": "Point", "coordinates": [-111.0595896888657, 51.538820056353224]}}, {"type": "Feature", "properties": {"norad_id": 65941, "name": "YOTSUBA-KULOVER", "group": "stations", "lat": 10.049574825436192, "lon": -28.789099402021535, "alt_km": 389.7664630382942, "timestamp": "2025-12-08T21:31:03.464539+00:00", "meta": {"OBJECT_NAME": "YOTSUBA-KULOVER", "OBJECT_ID": "1998-067XN", "EPOCH": "2025-12-08T13:06:38.018304", "MEAN_MOTION": 15.58705702, "ECCENTRICITY": 0.00016718, "INCLINATION": 51.6278, "RA_OF_ASC_NODE": 161.0428, "ARG_OF_PERICENTER": 208.1564, "MEAN_ANOMALY": 151.9338, "EPHEMERIS_TYPE": 0, "CLASSIFICATION_TYPE": "U", "NORAD_CAT_ID": 65941, "ELEMENT_SET_NO": 999, "REV_AT_EPOCH": 920, "BSTAR": 0.00090838679, "MEAN_MOTION_DOT": 0.0007141, "MEAN_MOTION_DDOT": 0}, "tle": {"line1": "1 65941U 98067XN  25342.54627336  .00071410  00000+0  90839-3 0  9991", "line2": "2 65941  51.6278 161.0428 0001671 208.1564 151.9338 15.58705702  9200"}}, "geometry": {"type": "Point", "coordinates": [-28.789099402021535, 10.049574825436192]}}, {"type": "Feature", "properties": {"norad_id": 65942, "name": "BOTAN", "group": "stations", "lat": 51.601650058188376, "lon": -110.04140963711825, "alt_km": 376.347430551441, "timestamp": "2025-12-08T21:31:03.464550+00:00", "meta": {"OBJECT_NAME": "BOTAN", "OBJECT_ID": "1998-067XP", "EPOCH": "2025-12-08T11:54:58.851072", "MEAN_MOTION": 15.61718865, "ECCENTRICITY": 0.00036467, "INCLINATION": 51.6286, "RA_OF_ASC_NODE": 160.7119, "ARG_OF_PERICENTER": 203.3745, "MEAN_ANOMALY": 156.7083, "EPHEMERIS_TYPE": 0, "CLASSIFICATION_TYPE": "U", "NORAD_CAT_ID": 65942, "ELEMENT_SET_NO": 999, "REV_AT_EPOCH": 920, "BSTAR": 0.0012042708, "MEAN_MOTION_DOT": 0.00106961, "MEAN_MOTION_DDOT": 0}, "tle": {"line1": "1 65942U 98067XP  25342.49651448  .00106961  00000+0  12043-2 0  9997", "line2": "2 65942  51.6286 160.7119 0003646 203.3745 156.7083 15.61718865  9203"}}, "geometry": {"type": "Point", "coordinates": [-110.04140963711825, 51.601650058188376]}}]}